start=new Date('2021-11-25T00:00:00.000Z').valueOf();
sats=[{"MEAN_ELEMENT_THEORY":"SGP4","MEAN_MOTION_DDOT":"0.0000000000000","OBJECT_ID":"2021-012BD","SEMIMAJOR_AXIS":"6925.359","RA_OF_ASC_NODE":"243.8954","PERIOD":"95.592","TLE_LINE2":"2 47671  53.0554 243.8954 0002065  67.5254 292.5954 15.06396469 44166","ARG_OF_PERICENTER":"67.5254","MEAN_MOTION":"15.06396469","SITE":"AFETR","ELEMENT_SET_NO":"999","EPOCH":"2021-11-24T04:40:50.865024","COUNTRY_CODE":"US","PERIAPSIS":"545.794","OBJECT_NAME":"STARLINK-2064","REV_AT_EPOCH":"4416","TIME_SYSTEM":"UTC","DECAY_DATE":null,"TLE_LINE1":"1 47671U 21012BD  21328.19503316  .00000417  00000-0  46935-4 0  9998","RCS_SIZE":"LARGE","ECCENTRICITY":"0.00020650","FILE":"3223022","MEAN_ANOMALY":"292.5954","REF_FRAME":"TEME","BSTAR":"0.00004693500000","MEAN_MOTION_DOT":"0.00000417","LAUNCH_DATE":"2021-02-16","OBJECT_TYPE":"PAYLOAD","GP_ID":"190398960","EPHEMERIS_TYPE":"0","APOAPSIS":"548.654","CENTER_NAME":"EARTH","NORAD_CAT_ID":"47671","INCLINATION":"53.0554","CLASSIFICATION_TYPE":"U"},{"REV_AT_EPOCH":"4437","TIME_SYSTEM":"UTC","DECAY_DATE":null,"TLE_LINE1":"1 47672U 21012BE  21328.83731188 -.00000359  00000-0 -51732-5 0  9999","RCS_SIZE":"LARGE","ECCENTRICITY":"0.00030960","MEAN_ELEMENT_THEORY":"SGP4","MEAN_MOTION_DDOT":"0.0000000000000","OBJECT_ID":"2021-012BE","RA_OF_ASC_NODE":"230.9947","SEMIMAJOR_AXIS":"6925.346","PERIOD":"95.592","TLE_LINE2":"2 47672  53.0534 230.9947 0003096  64.9679 295.1631 15.06400864 44370","ARG_OF_PERICENTER":"64.9679","MEAN_MOTION":"15.06400864","SITE":"AFETR","ELEMENT_SET_NO":"999","COUNTRY_CODE":"US","EPOCH":"2021-11-24T20:05:43.746432","PERIAPSIS":"545.067","OBJECT_NAME":"STARLINK-2065","OBJECT_TYPE":"PAYLOAD","GP_ID":"190424434","EPHEMERIS_TYPE":"0","APOAPSIS":"549.355","CENTER_NAME":"EARTH","NORAD_CAT_ID":"47672","INCLINATION":"53.0534","CLASSIFICATION_TYPE":"U","FILE":"3223205","REF_FRAME":"TEME","MEAN_ANOMALY":"295.1631","BSTAR":"-0.00000517320000","MEAN_MOTION_DOT":"-0.00000359","LAUNCH_DATE":"2021-02-16"},{"REV_AT_EPOCH":"4425","TIME_SYSTEM":"UTC","DECAY_DATE":null,"TLE_LINE1":"1 47673U 21012BF  21328.88061490  .00001319  00000-0  10740-3 0  9994","RCS_SIZE":"LARGE","ECCENTRICITY":"0.00020580","MEAN_ELEMENT_THEORY":"SGP4","MEAN_MOTION_DDOT":"0.0000000000000","OBJECT_ID":"2021-012BF","TLE_LINE2":"2 47673  53.0545 240.8028 0002058  69.3167 290.8042 15.06406612 44253","PERIOD":"95.592","SEMIMAJOR_AXIS":"6925.328","RA_OF_ASC_NODE":"240.8028","ARG_OF_PERICENTER":"69.3167","SITE":"AFETR","MEAN_MOTION":"15.06406612","ELEMENT_SET_NO":"999","PERIAPSIS":"545.768","OBJECT_NAME":"STARLINK-2066","EPOCH":"2021-11-24T21:08:05.127360","COUNTRY_CODE":"US","OBJECT_TYPE":"PAYLOAD","EPHEMERIS_TYPE":"0","APOAPSIS":"548.619","GP_ID":"190425181","NORAD_CAT_ID":"47673","CENTER_NAME":"EARTH","INCLINATION":"53.0545","CLASSIFICATION_TYPE":"U","FILE":"3223205","MEAN_ANOMALY":"290.8042","REF_FRAME":"TEME","BSTAR":"0.00010740000000","MEAN_MOTION_DOT":"0.00001319","LAUNCH_DATE":"2021-02-16"},{"BSTAR":"-0.00000210640000","REF_FRAME":"TEME","FILE":"3223022","MEAN_ANOMALY":"293.8776","LAUNCH_DATE":"2021-02-16","MEAN_MOTION_DOT":"-0.00000313","NORAD_CAT_ID":"47674","CENTER_NAME":"EARTH","INCLINATION":"53.0538","CLASSIFICATION_TYPE":"U","EPHEMERIS_TYPE":"0","APOAPSIS":"548.605","GP_ID":"190398716","OBJECT_TYPE":"PAYLOAD","SITE":"AFETR","MEAN_MOTION":"15.06395452","ARG_OF_PERICENTER":"66.2421","OBJECT_NAME":"STARLINK-2067","PERIAPSIS":"545.850","EPOCH":"2021-11-24T05:33:55.829088","COUNTRY_CODE":"US","ELEMENT_SET_NO":"999","MEAN_MOTION_DDOT":"0.0000000000000","MEAN_ELEMENT_THEORY":"SGP4","TLE_LINE2":"2 47674  53.0538 243.7095 0001989  66.2421 293.8776 15.06395452 44169","PERIOD":"95.592","RA_OF_ASC_NODE":"243.7095","SEMIMAJOR_AXIS":"6925.362","OBJECT_ID":"2021-012BG","RCS_SIZE":"LARGE","ECCENTRICITY":"0.00019890","TIME_SYSTEM":"UTC","REV_AT_EPOCH":"4416","TLE_LINE1":"1 47674U 21012BG  21328.23189617 -.00000313  00000-0 -21064-5 0  9994","DECAY_DATE":null},{"CLASSIFICATION_TYPE":"U","INCLINATION":"53.0558","NORAD_CAT_ID":"47675","CENTER_NAME":"EARTH","OBJECT_TYPE":"PAYLOAD","APOAPSIS":"548.730","EPHEMERIS_TYPE":"0","GP_ID":"190398460","MEAN_MOTION_DOT":"-0.00000225","LAUNCH_DATE":"2021-02-16","FILE":"3223022","MEAN_ANOMALY":"294.5684","REF_FRAME":"TEME","BSTAR":"0.00000383530000","ECCENTRICITY":"0.00021920","RCS_SIZE":"LARGE","DECAY_DATE":null,"TLE_LINE1":"1 47675U 21012BH  21328.15816801 -.00000225  00000-0  38353-5 0  9998","REV_AT_EPOCH":"4415","TIME_SYSTEM":"UTC","ELEMENT_SET_NO":"999","OBJECT_NAME":"STARLINK-2078","PERIAPSIS":"545.694","EPOCH":"2021-11-24T03:47:45.716064","COUNTRY_CODE":"US","ARG_OF_PERICENTER":"65.5533","SITE":"AFETR","MEAN_MOTION":"15.06400490","OBJECT_ID":"2021-012BH","TLE_LINE2":"2 47675  53.0558 244.0471 0002192  65.5533 294.5684 15.06400490 44151","PERIOD":"95.592","RA_OF_ASC_NODE":"244.0471","SEMIMAJOR_AXIS":"6925.347","MEAN_ELEMENT_THEORY":"SGP4","MEAN_MOTION_DDOT":"0.0000000000000"},{"OBJECT_TYPE":"PAYLOAD","GP_ID":"190401456","APOAPSIS":"355.420","EPHEMERIS_TYPE":"0","CENTER_NAME":"EARTH","NORAD_CAT_ID":"47676","CLASSIFICATION_TYPE":"U","INCLINATION":"53.0541","MEAN_ANOMALY":"224.3785","FILE":"3223092","REF_FRAME":"TEME","BSTAR":"-0.00006669100000","MEAN_MOTION_DOT":"-0.00010015","LAUNCH_DATE":"2021-02-16","REV_AT_EPOCH":"4513","TIME_SYSTEM":"UTC","DECAY_DATE":null,"TLE_LINE1":"1 47676U 21012BJ  21328.91667824 -.00010015  00000-0 -66691-4 0  9996","RCS_SIZE":"LARGE","ECCENTRICITY":"0.00085220","MEAN_ELEMENT_THEORY":"SGP4","MEAN_MOTION_DDOT":"0.0000000000000","OBJECT_ID":"2021-012BJ","RA_OF_ASC_NODE":"141.1083","SEMIMAJOR_AXIS":"6727.821","PERIOD":"91.532","TLE_LINE2":"2 47676  53.0541 141.1083 0008522 309.8478 224.3785 15.73225934 45139","ARG_OF_PERICENTER":"309.8478","MEAN_MOTION":"15.73225934","SITE":"AFETR","ELEMENT_SET_NO":"999","EPOCH":"2021-11-24T22:00:00.999936","COUNTRY_CODE":"US","PERIAPSIS":"343.953","OBJECT_NAME":"STARLINK-2083"},{"LAUNCH_DATE":"2021-02-16","MEAN_MOTION_DOT":"-0.00000139","BSTAR":"0.00000955130000","FILE":"3223022","MEAN_ANOMALY":"291.6744","REF_FRAME":"TEME","GP_ID":"190397472","EPHEMERIS_TYPE":"0","APOAPSIS":"548.522","OBJECT_TYPE":"PAYLOAD","CLASSIFICATION_TYPE":"U","INCLINATION":"53.0559","CENTER_NAME":"EARTH","NORAD_CAT_ID":"47677","SEMIMAJOR_AXIS":"6925.384","RA_OF_ASC_NODE":"263.8125","PERIOD":"95.593","TLE_LINE2":"2 47677  53.0559 263.8125 0001838  68.4440 291.6744 15.06388508 43872","OBJECT_ID":"2021-012BK","MEAN_MOTION_DDOT":"0.0000000000000","MEAN_ELEMENT_THEORY":"SGP4","COUNTRY_CODE":"US","EPOCH":"2021-11-24T05:04:43.960224","OBJECT_NAME":"STARLINK-2090","PERIAPSIS":"545.976","ELEMENT_SET_NO":"999","SITE":"AFETR","MEAN_MOTION":"15.06388508","ARG_OF_PERICENTER":"68.4440","TLE_LINE1":"1 47677U 21012BK  21328.21161991 -.00000139  00000-0  95513-5 0  9995","DECAY_DATE":null,"TIME_SYSTEM":"UTC","REV_AT_EPOCH":"4387","ECCENTRICITY":"0.00018380","RCS_SIZE":"LARGE"},{"ELEMENT_SET_NO":"999","PERIAPSIS":"546.022","OBJECT_NAME":"STARLINK-2095","EPOCH":"2021-11-24T05:45:49.532832","COUNTRY_CODE":"US","ARG_OF_PERICENTER":"72.1347","MEAN_MOTION":"15.06391370","SITE":"AFETR","OBJECT_ID":"2021-012BM","TLE_LINE2":"2 47679  53.0556 263.6931 0001759  72.1347 287.9834 15.06391370 43895","PERIOD":"95.593","RA_OF_ASC_NODE":"263.6931","SEMIMAJOR_AXIS":"6925.375","MEAN_ELEMENT_THEORY":"SGP4","MEAN_MOTION_DDOT":"0.0000000000000","ECCENTRICITY":"0.00017590","RCS_SIZE":"LARGE","DECAY_DATE":null,"TLE_LINE1":"1 47679U 21012BM  21328.24015663  .00000494  00000-0  52073-4 0  9990","REV_AT_EPOCH":"4389","TIME_SYSTEM":"UTC","MEAN_MOTION_DOT":"0.00000494","LAUNCH_DATE":"2021-02-16","REF_FRAME":"TEME","FILE":"3223022","MEAN_ANOMALY":"287.9834","BSTAR":"0.00005207300000","INCLINATION":"53.0556","CLASSIFICATION_TYPE":"U","NORAD_CAT_ID":"47679","CENTER_NAME":"EARTH","OBJECT_TYPE":"PAYLOAD","EPHEMERIS_TYPE":"0","APOAPSIS":"548.458","GP_ID":"190398216"},{"RCS_SIZE":"LARGE","ECCENTRICITY":"0.00013140","TIME_SYSTEM":"UTC","REV_AT_EPOCH":"4194","TLE_LINE1":"1 47722U 21017A   21328.59170705 -.00000348  00000-0 -44764-5 0  9990","DECAY_DATE":null,"MEAN_MOTION":"15.06390953","SITE":"AFETR","ARG_OF_PERICENTER":"70.4502","EPOCH":"2021-11-24T14:12:03.489120","COUNTRY_CODE":"US","OBJECT_NAME":"STARLINK-2068","PERIAPSIS":"546.331","ELEMENT_SET_NO":"999","MEAN_MOTION_DDOT":"0.0000000000000","MEAN_ELEMENT_THEORY":"SGP4","RA_OF_ASC_NODE":"27.1079","SEMIMAJOR_AXIS":"6925.376","TLE_LINE2":"2 47722  53.0580  27.1079 0001314  70.4502 289.6628 15.06390953 41948","PERIOD":"95.593","OBJECT_ID":"2021-017A","CENTER_NAME":"EARTH","NORAD_CAT_ID":"47722","INCLINATION":"53.0580","CLASSIFICATION_TYPE":"U","GP_ID":"190426191","EPHEMERIS_TYPE":"0","APOAPSIS":"548.151","OBJECT_TYPE":"PAYLOAD","BSTAR":"-0.00000447640000","REF_FRAME":"TEME","FILE":"3223205","MEAN_ANOMALY":"289.6628","LAUNCH_DATE":"2021-03-04","MEAN_MOTION_DOT":"-0.00000348"},{"PERIOD":"95.592","TLE_LINE2":"2 47723  53.0531 323.1436 0002123  53.7303 306.3882 15.06395767 42783","RA_OF_ASC_NODE":"323.1436","SEMIMAJOR_AXIS":"6925.362","OBJECT_ID":"2021-017B","MEAN_MOTION_DDOT":"0.0000000000000","MEAN_ELEMENT_THEORY":"SGP4","OBJECT_NAME":"STARLINK-2107","PERIAPSIS":"545.756","EPOCH":"2021-11-24T08:34:23.996352","COUNTRY_CODE":"US","ELEMENT_SET_NO":"999","SITE":"AFETR","MEAN_MOTION":"15.06395767","ARG_OF_PERICENTER":"53.7303","TLE_LINE1":"1 47723U 21017B   21328.35722218 -.00000818  00000-0 -36017-4 0  9990","DECAY_DATE":null,"TIME_SYSTEM":"UTC","REV_AT_EPOCH":"4278","ECCENTRICITY":"0.00021230","RCS_SIZE":"LARGE","LAUNCH_DATE":"2021-03-04","MEAN_MOTION_DOT":"-0.00000818","BSTAR":"-0.00003601700000","FILE":"3223022","REF_FRAME":"TEME","MEAN_ANOMALY":"306.3882","APOAPSIS":"548.697","EPHEMERIS_TYPE":"0","GP_ID":"190397227","OBJECT_TYPE":"PAYLOAD","CLASSIFICATION_TYPE":"U","INCLINATION":"53.0531","NORAD_CAT_ID":"47723","CENTER_NAME":"EARTH"}];
